{
  "type": "FeatureCollection",
  "features": [
    {
      "type": "Feature",
      "properties": {
        "norad_id": 42989,
        "name": "SKYSAT-C9",
        "group": "resource",
        "lat": -25.19791823299519,
        "lon": 128.53293754034894,
        "alt_km": 462.6571402953514,
        "timestamp": "2025-12-20T16:47:35.949006+00:00",
        "meta_object_name": "SKYSAT-C9",
        "meta_object_id": "2017-068C",
        "meta_epoch": "2025-12-20T09:05:14.412192",
        "meta_mean_motion": 15.36231902,
        "meta_eccentricity": 0.0010507,
        "meta_inclination": 97.4201,
        "meta_ra_of_asc_node": 124.6936,
        "meta_arg_of_pericenter": 63.4871,
        "meta_mean_anomaly": 296.7449,
        "meta_ephemeris_type": 0,
        "meta_classification_type": "U",
        "meta_norad_cat_id": 42989,
        "meta_element_set_no": 999,
        "meta_rev_at_epoch": 45525,
        "meta_bstar": 0.00027592,
        "meta_mean_motion_dot": 9.68e-05,
        "meta_mean_motion_ddot": 0,
        "tle_line1": "1 42989U 17068C   25354.37863903  .00009680  00000+0  27592-3 0  9992",
        "tle_line2": "2 42989  97.4201 124.6936 0010507  63.4871 296.7449 15.36231902455254"
      },
      "geometry": {
        "type": "Point",
        "coordinates": [
          128.53293754034894,
          -25.19791823299519
        ]
      }
    },
    {
      "type": "Feature",
      "properties": {
        "norad_id": 42990,
        "name": "SKYSAT-C8",
        "group": "resource",
        "lat": -35.45612141107035,
        "lon": -60.59608176787364,
        "alt_km": 472.98147556243293,
        "timestamp": "2025-12-20T16:47:35.949016+00:00",
        "meta_object_name": "SKYSAT-C8",
        "meta_object_id": "2017-068D",
        "meta_epoch": "2025-12-20T06:27:22.559040",
        "meta_mean_motion": 15.3307619,
        "meta_eccentricity": 0.0001076,
        "meta_inclination": 97.4285,
        "meta_ra_of_asc_node": 124.3027,
        "meta_arg_of_pericenter": 306.8673,
        "meta_mean_anomaly": 53.247,
        "meta_ephemeris_type": 0,
        "meta_classification_type": "U",
        "meta_norad_cat_id": 42990,
        "meta_element_set_no": 999,
        "meta_rev_at_epoch": 45486,
        "meta_bstar": 0.00026424,
        "meta_mean_motion_dot": 8.365e-05,
        "meta_mean_motion_ddot": 0,
        "tle_line1": "1 42990U 17068D   25354.26901110  .00008365  00000+0  26424-3 0  9997",
        "tle_line2": "2 42990  97.4285 124.3027 0001076 306.8673  53.2470 15.33076190454860"
      },
      "geometry": {
        "type": "Point",
        "coordinates": [
          -60.59608176787364,
          -35.45612141107035
        ]
      }
    },
    {
      "type": "Feature",
      "properties": {
        "norad_id": 42991,
        "name": "SKYSAT-C7",
        "group": "resource",
        "lat": 53.335675336611494,
        "lon": 115.67445345113799,
        "alt_km": 458.8915471057171,
        "timestamp": "2025-12-20T16:47:35.949026+00:00",
        "meta_object_name": "SKYSAT-C7",
        "meta_object_id": "2017-068E",
        "meta_epoch": "2025-12-20T07:09:22.523904",
        "meta_mean_motion": 15.32476114,
        "meta_eccentricity": 0.0007174,
        "meta_inclination": 97.4292,
        "meta_ra_of_asc_node": 125.367,
        "meta_arg_of_pericenter": 33.5088,
        "meta_mean_anomaly": 326.6606,
        "meta_ephemeris_type": 0,
        "meta_classification_type": "U",
        "meta_norad_cat_id": 42991,
        "meta_element_set_no": 999,
        "meta_rev_at_epoch": 45493,
        "meta_bstar": 0.00025454,
        "meta_mean_motion_dot": 7.909e-05,
        "meta_mean_motion_ddot": 0,
        "tle_line1": "1 42991U 17068E   25354.29817736  .00007909  00000+0  25454-3 0  9996",
        "tle_line2": "2 42991  97.4292 125.3670 0007174  33.5088 326.6606 15.32476114454938"
      },
      "geometry": {
        "type": "Point",
        "coordinates": [
          115.67445345113799,
          53.335675336611494
        ]
      }
    },
    {
      "type": "Feature",
      "properties": {
        "norad_id": 42992,
        "name": "SKYSAT-C6",
        "group": "resource",
        "lat": 32.604527959193305,
        "lon": -49.00798498620781,
        "alt_km": 468.8438790103319,
        "timestamp": "2025-12-20T16:47:35.949037+00:00",
        "meta_object_name": "SKYSAT-C6",
        "meta_object_id": "2017-068F",
        "meta_epoch": "2025-12-20T08:18:51.588288",
        "meta_mean_motion": 15.3163493,
        "meta_eccentricity": 0.0004992,
        "meta_inclination": 97.4327,
        "meta_ra_of_asc_node": 125.8477,
        "meta_arg_of_pericenter": 61.8537,
        "meta_mean_anomaly": 298.3208,
        "meta_ephemeris_type": 0,
        "meta_classification_type": "U",
        "meta_norad_cat_id": 42992,
        "meta_element_set_no": 999,
        "meta_rev_at_epoch": 45492,
        "meta_bstar": 0.00024416,
        "meta_mean_motion_dot": 7.383e-05,
        "meta_mean_motion_ddot": 0,
        "tle_line1": "1 42992U 17068F   25354.34643042  .00007383  00000+0  24416-3 0  9993",
        "tle_line2": "2 42992  97.4327 125.8477 0004992  61.8537 298.3208 15.31634930454929"
      },
      "geometry": {
        "type": "Point",
        "coordinates": [
          -49.00798498620781,
          32.604527959193305
        ]
      }
    },
    {
      "type": "Feature",
      "properties": {
        "norad_id": 43111,
        "name": "CARTOSAT-2F",
        "group": "resource",
        "lat": -78.70563310042014,
        "lon": -168.59699765961085,
        "alt_km": 516.4758795114658,
        "timestamp": "2025-12-20T16:47:35.949047+00:00",
        "meta_object_name": "CARTOSAT-2F",
        "meta_object_id": "2018-004A",
        "meta_epoch": "2025-12-20T12:29:03.534720",
        "meta_mean_motion": 15.19197756,
        "meta_eccentricity": 0.0001405,
        "meta_inclination": 97.4309,
        "meta_ra_of_asc_node": 52.0329,
        "meta_arg_of_pericenter": 109.2563,
        "meta_mean_anomaly": 250.8824,
        "meta_ephemeris_type": 0,
        "meta_classification_type": "U",
        "meta_norad_cat_id": 43111,
        "meta_element_set_no": 999,
        "meta_rev_at_epoch": 44020,
        "meta_bstar": 0.00031709,
        "meta_mean_motion_dot": 6.607e-05,
        "meta_mean_motion_ddot": 0,
        "tle_line1": "1 43111U 18004A   25354.52017980  .00006607  00000+0  31709-3 0  9995",
        "tle_line2": "2 43111  97.4309  52.0329 0001405 109.2563 250.8824 15.19197756440201"
      },
      "geometry": {
        "type": "Point",
        "coordinates": [
          -168.59699765961085,
          -78.70563310042014
        ]
      }
    },
    {
      "type": "Feature",
      "properties": {
        "norad_id": 43259,
        "name": "GAOFEN-1 02",
        "group": "resource",
        "lat": -61.240437922083785,
        "lon": -142.50920945000067,
        "alt_km": 646.8978203850193,
        "timestamp": "2025-12-20T16:47:35.949057+00:00",
        "meta_object_name": "GAOFEN-1 02",
        "meta_object_id": "2018-031A",
        "meta_epoch": "2025-12-20T12:26:47.054688",
        "meta_mean_motion": 14.76430007,
        "meta_eccentricity": 0.0002254,
        "meta_inclination": 98.0802,
        "meta_ra_of_asc_node": 52.3112,
        "meta_arg_of_pericenter": 186.6959,
        "meta_mean_anomaly": 173.4221,
        "meta_ephemeris_type": 0,
        "meta_classification_type": "U",
        "meta_norad_cat_id": 43259,
        "meta_element_set_no": 999,
        "meta_rev_at_epoch": 41633,
        "meta_bstar": 0.00011114,
        "meta_mean_motion_dot": 7.21e-06,
        "meta_mean_motion_ddot": 0,
        "tle_line1": "1 43259U 18031A   25354.51860017  .00000721  00000+0  11114-3 0  9993",
        "tle_line2": "2 43259  98.0802  52.3112 0002254 186.6959 173.4221 14.76430007416332"
      },
      "geometry": {
        "type": "Point",
        "coordinates": [
          -142.50920945000067,
          -61.240437922083785
        ]
      }
    },
    {
      "type": "Feature",
      "properties": {
        "norad_id": 43260,
        "name": "GAOFEN-1 03",
        "group": "resource",
        "lat": -2.0637702607240085,
        "lon": 52.66100746735712,
        "alt_km": 643.5589549026927,
        "timestamp": "2025-12-20T16:47:35.949073+00:00",
        "meta_object_name": "GAOFEN-1 03",
        "meta_object_id": "2018-031B",
        "meta_epoch": "2025-12-20T11:55:23.628864",
        "meta_mean_motion": 14.764514,
        "meta_eccentricity": 0.00017,
        "meta_inclination": 98.0788,
        "meta_ra_of_asc_node": 52.1648,
        "meta_arg_of_pericenter": 281.4855,
        "meta_mean_anomaly": 78.6164,
        "meta_ephemeris_type": 0,
        "meta_classification_type": "U",
        "meta_norad_cat_id": 43260,
        "meta_element_set_no": 999,
        "meta_rev_at_epoch": 41632,
        "meta_bstar": 9.8887e-05,
        "meta_mean_motion_dot": 6.36e-06,
        "meta_mean_motion_ddot": 0,
        "tle_line1": "1 43260U 18031B   25354.49680126  .00000636  00000+0  98887-4 0  9991",
        "tle_line2": "2 43260  98.0788  52.1648 0001700 281.4855  78.6164 14.76451400416324"
      },
      "geometry": {
        "type": "Point",
        "coordinates": [
          52.66100746735712,
          -2.0637702607240085
        ]
      }
    }
  ]
}